start=new Date('2022-11-28T00:00:00.000Z').valueOf();
sats=[{"RA_OF_ASC_NODE":"242.4458","COUNTRY_CODE":"US","GP_ID":"218957883","APOAPSIS":"548.223","MEAN_ELEMENT_THEORY":"SGP4","REV_AT_EPOCH":"9489","EPOCH":"2022-11-27T03:20:39.339744","TIME_SYSTEM":"UTC","OBJECT_TYPE":"PAYLOAD","CENTER_NAME":"EARTH","PERIOD":"95.592","FILE":"3671616","SEMIMAJOR_AXIS":"6925.350","SITE":"AFETR","DECAY_DATE":null,"MEAN_MOTION_DDOT":"0.0000000000000","TLE_LINE1":"1 48002U 21024AB  22331.13934421  .00001887  00000-0  14556-3 0  9999","NORAD_CAT_ID":"48002","PERIAPSIS":"546.207","TLE_LINE2":"2 48002  53.0548 242.4458 0001455  59.3986 300.7146 15.06399558 94897","MEAN_MOTION_DOT":"0.00001887","BSTAR":"0.00014556000000","MEAN_MOTION":"15.06399558","ECCENTRICITY":"0.00014550","INCLINATION":"53.0548","LAUNCH_DATE":"2021-03-24","REF_FRAME":"TEME","OBJECT_NAME":"STARLINK-2265","RCS_SIZE":"LARGE","ARG_OF_PERICENTER":"59.3986","ELEMENT_SET_NO":"999","OBJECT_ID":"2021-024AB","EPHEMERIS_TYPE":"0","CLASSIFICATION_TYPE":"U","MEAN_ANOMALY":"300.7146"},{"PERIAPSIS":"545.948","BSTAR":"0.00000790810000","TLE_LINE2":"2 48003  53.0551 314.8035 0001852  53.5758 306.5402 15.06394311 93925","MEAN_MOTION_DOT":"-0.00000164","INCLINATION":"53.0551","LAUNCH_DATE":"2021-03-24","MEAN_MOTION":"15.06394311","ECCENTRICITY":"0.00018520","OBJECT_NAME":"STARLINK-2263","REF_FRAME":"TEME","RCS_SIZE":"LARGE","ARG_OF_PERICENTER":"53.5758","OBJECT_ID":"2021-024AC","CLASSIFICATION_TYPE":"U","EPHEMERIS_TYPE":"0","ELEMENT_SET_NO":"999","MEAN_ANOMALY":"306.5402","GP_ID":"218990638","COUNTRY_CODE":"US","RA_OF_ASC_NODE":"314.8035","EPOCH":"2022-11-27T15:47:00.273984","TIME_SYSTEM":"UTC","APOAPSIS":"548.514","MEAN_ELEMENT_THEORY":"SGP4","REV_AT_EPOCH":"9392","OBJECT_TYPE":"PAYLOAD","CENTER_NAME":"EARTH","PERIOD":"95.593","FILE":"3671921","DECAY_DATE":null,"SITE":"AFETR","MEAN_MOTION_DDOT":"0.0000000000000","SEMIMAJOR_AXIS":"6925.366","NORAD_CAT_ID":"48003","TLE_LINE1":"1 48003U 21024AC  22331.65764206 -.00000164  00000-0  79081-5 0  9993"},{"RCS_SIZE":"LARGE","ARG_OF_PERICENTER":"72.5632","REF_FRAME":"TEME","OBJECT_NAME":"STARLINK-2254","MEAN_ANOMALY":"287.5522","ELEMENT_SET_NO":"999","OBJECT_ID":"2021-024AE","CLASSIFICATION_TYPE":"U","EPHEMERIS_TYPE":"0","PERIAPSIS":"546.152","MEAN_MOTION":"15.06404370","ECCENTRICITY":"0.00015130","INCLINATION":"53.0549","LAUNCH_DATE":"2021-03-24","TLE_LINE2":"2 48005  53.0549 283.7026 0001513  72.5632 287.5522 15.06404370 94383","MEAN_MOTION_DOT":"0.00001481","BSTAR":"0.00011829000000","PERIOD":"95.592","FILE":"3671921","TLE_LINE1":"1 48005U 21024AE  22331.89998668  .00001481  00000-0  11829-3 0  9998","NORAD_CAT_ID":"48005","SEMIMAJOR_AXIS":"6925.335","SITE":"AFETR","DECAY_DATE":null,"MEAN_MOTION_DDOT":"0.0000000000000","RA_OF_ASC_NODE":"283.7026","COUNTRY_CODE":"US","GP_ID":"218990888","OBJECT_TYPE":"PAYLOAD","CENTER_NAME":"EARTH","MEAN_ELEMENT_THEORY":"SGP4","APOAPSIS":"548.248","REV_AT_EPOCH":"9438","TIME_SYSTEM":"UTC","EPOCH":"2022-11-27T21:35:58.849152"},{"TLE_LINE1":"1 48008U 21024AH  22331.65623701  .00000219  00000-0  33628-4 0  9998","NORAD_CAT_ID":"48008","SEMIMAJOR_AXIS":"6925.369","DECAY_DATE":null,"MEAN_MOTION_DDOT":"0.0000000000000","SITE":"AFETR","FILE":"3671921","PERIOD":"95.593","OBJECT_TYPE":"PAYLOAD","CENTER_NAME":"EARTH","APOAPSIS":"548.446","MEAN_ELEMENT_THEORY":"SGP4","REV_AT_EPOCH":"9526","TIME_SYSTEM":"UTC","EPOCH":"2022-11-27T15:44:58.877664","RA_OF_ASC_NODE":"219.8116","GP_ID":"218989137","COUNTRY_CODE":"US","MEAN_ANOMALY":"300.6325","ELEMENT_SET_NO":"999","OBJECT_ID":"2021-024AH","CLASSIFICATION_TYPE":"U","EPHEMERIS_TYPE":"0","RCS_SIZE":"LARGE","ARG_OF_PERICENTER":"59.4836","REF_FRAME":"TEME","OBJECT_NAME":"STARLINK-2271","MEAN_MOTION":"15.06393435","ECCENTRICITY":"0.00017510","INCLINATION":"53.0553","LAUNCH_DATE":"2021-03-24","MEAN_MOTION_DOT":"0.00000219","TLE_LINE2":"2 48008  53.0553 219.8116 0001751  59.4836 300.6325 15.06393435 95260","BSTAR":"0.00003362800000","PERIAPSIS":"546.021"},{"ELEMENT_SET_NO":"999","OBJECT_ID":"2021-024AJ","CLASSIFICATION_TYPE":"U","EPHEMERIS_TYPE":"0","MEAN_ANOMALY":"306.0008","REF_FRAME":"TEME","OBJECT_NAME":"STARLINK-2153","RCS_SIZE":"LARGE","ARG_OF_PERICENTER":"54.1179","MEAN_MOTION_DOT":"0.00001810","TLE_LINE2":"2 48009  53.0544 296.3349 0002133  54.1179 306.0008 15.06410201 94163","BSTAR":"0.00014036000000","MEAN_MOTION":"15.06410201","ECCENTRICITY":"0.00021330","INCLINATION":"53.0544","LAUNCH_DATE":"2021-03-24","PERIAPSIS":"545.705","SEMIMAJOR_AXIS":"6925.317","SITE":"AFETR","DECAY_DATE":null,"MEAN_MOTION_DDOT":"0.0000000000000","TLE_LINE1":"1 48009U 21024AJ  22331.31668770  .00001810  00000-0  14036-3 0  9996","NORAD_CAT_ID":"48009","PERIOD":"95.591","FILE":"3671616","MEAN_ELEMENT_THEORY":"SGP4","APOAPSIS":"548.659","REV_AT_EPOCH":"9416","TIME_SYSTEM":"UTC","EPOCH":"2022-11-27T07:36:01.817280","OBJECT_TYPE":"PAYLOAD","CENTER_NAME":"EARTH","RA_OF_ASC_NODE":"296.3349","COUNTRY_CODE":"US","GP_ID":"218957384"},{"PERIAPSIS":"546.271","MEAN_MOTION_DOT":"0.00000430","TLE_LINE2":"2 48010  53.0559 315.9743 0001382  62.5818 297.5311 15.06395277 93890","BSTAR":"0.00004778200000","MEAN_MOTION":"15.06395277","ECCENTRICITY":"0.00013820","INCLINATION":"53.0559","LAUNCH_DATE":"2021-03-24","REF_FRAME":"TEME","OBJECT_NAME":"STARLINK-2226","RCS_SIZE":"LARGE","ARG_OF_PERICENTER":"62.5818","ELEMENT_SET_NO":"999","OBJECT_ID":"2021-024AK","CLASSIFICATION_TYPE":"U","EPHEMERIS_TYPE":"0","MEAN_ANOMALY":"297.5311","RA_OF_ASC_NODE":"315.9743","COUNTRY_CODE":"US","GP_ID":"218956636","APOAPSIS":"548.185","MEAN_ELEMENT_THEORY":"SGP4","REV_AT_EPOCH":"9389","TIME_SYSTEM":"UTC","EPOCH":"2022-11-27T09:30:09.441504","OBJECT_TYPE":"PAYLOAD","CENTER_NAME":"EARTH","PERIOD":"95.592","FILE":"3671616","SEMIMAJOR_AXIS":"6925.363","MEAN_MOTION_DDOT":"0.0000000000000","DECAY_DATE":null,"SITE":"AFETR","TLE_LINE1":"1 48010U 21024AK  22331.39594261  .00000430  00000-0  47782-4 0  9991","NORAD_CAT_ID":"48010"},{"DECAY_DATE":null,"SITE":"AFETR","MEAN_MOTION_DDOT":"0.0000000000000","SEMIMAJOR_AXIS":"6925.380","NORAD_CAT_ID":"48011","TLE_LINE1":"1 48011U 21024AL  22331.88339073 -.00000432  00000-0 -10064-4 0  9991","PERIOD":"95.593","FILE":"3671921","EPOCH":"2022-11-27T21:12:04.959072","TIME_SYSTEM":"UTC","REV_AT_EPOCH":"9430","APOAPSIS":"548.745","MEAN_ELEMENT_THEORY":"SGP4","CENTER_NAME":"EARTH","OBJECT_TYPE":"PAYLOAD","GP_ID":"218990389","COUNTRY_CODE":"US","RA_OF_ASC_NODE":"293.7901","CLASSIFICATION_TYPE":"U","EPHEMERIS_TYPE":"0","OBJECT_ID":"2021-024AL","ELEMENT_SET_NO":"999","MEAN_ANOMALY":"304.3355","OBJECT_NAME":"STARLINK-2272","REF_FRAME":"TEME","ARG_OF_PERICENTER":"55.7839","RCS_SIZE":"LARGE","BSTAR":"-0.00001006400000","MEAN_MOTION_DOT":"-0.00000432","TLE_LINE2":"2 48011  53.0552 293.7901 0002166  55.7839 304.3355 15.06389889 94305","LAUNCH_DATE":"2021-03-24","INCLINATION":"53.0552","ECCENTRICITY":"0.00021660","MEAN_MOTION":"15.06389889","PERIAPSIS":"545.745"},{"PERIAPSIS":"402.217","BSTAR":"0.00032547000000","TLE_LINE2":"2 48012  53.0492 190.9538 0003329 177.6903   0.6361 15.54202013  1308","MEAN_MOTION_DOT":"0.00021157","LAUNCH_DATE":"2021-03-24","INCLINATION":"53.0492","ECCENTRICITY":"0.00033290","MEAN_MOTION":"15.54202013","OBJECT_NAME":"STARLINK-2216","REF_FRAME":"TEME","ARG_OF_PERICENTER":"177.6903","RCS_SIZE":"LARGE","EPHEMERIS_TYPE":"0","CLASSIFICATION_TYPE":"U","OBJECT_ID":"2021-024AM","ELEMENT_SET_NO":"999","MEAN_ANOMALY":"0.6361","GP_ID":"218989637","COUNTRY_CODE":"US","RA_OF_ASC_NODE":"190.9538","EPOCH":"2022-11-27T22:00:00.999936","TIME_SYSTEM":"UTC","REV_AT_EPOCH":"130","APOAPSIS":"406.733","MEAN_ELEMENT_THEORY":"SGP4","CENTER_NAME":"EARTH","OBJECT_TYPE":"PAYLOAD","PERIOD":"92.652","FILE":"3671921","SITE":"AFETR","DECAY_DATE":null,"MEAN_MOTION_DDOT":"0.0000000000000","SEMIMAJOR_AXIS":"6782.610","NORAD_CAT_ID":"48012","TLE_LINE1":"1 48012U 21024AM  22331.91667824  .00021157  00000-0  32547-3 0  9998"},{"TLE_LINE2":"2 48013  53.0553 281.6647 0001672  63.0397 297.0762 15.06391290 94368","MEAN_MOTION_DOT":"-0.00001212","BSTAR":"-0.00006248900000","MEAN_MOTION":"15.06391290","ECCENTRICITY":"0.00016720","INCLINATION":"53.0553","LAUNCH_DATE":"2021-03-24","PERIAPSIS":"546.082","ELEMENT_SET_NO":"999","OBJECT_ID":"2021-024AN","CLASSIFICATION_TYPE":"U","EPHEMERIS_TYPE":"0","MEAN_ANOMALY":"297.0762","REF_FRAME":"TEME","OBJECT_NAME":"STARLINK-2243","RCS_SIZE":"LARGE","ARG_OF_PERICENTER":"63.0397","MEAN_ELEMENT_THEORY":"SGP4","APOAPSIS":"548.398","REV_AT_EPOCH":"9436","EPOCH":"2022-11-27T05:49:13.887840","TIME_SYSTEM":"UTC","OBJECT_TYPE":"PAYLOAD","CENTER_NAME":"EARTH","RA_OF_ASC_NODE":"281.6647","GP_ID":"218957884","COUNTRY_CODE":"US","SEMIMAJOR_AXIS":"6925.375","DECAY_DATE":null,"SITE":"AFETR","MEAN_MOTION_DDOT":"0.0000000000000","TLE_LINE1":"1 48013U 21024AN  22331.24252185 -.00001212  00000-0 -62489-4 0  9996","NORAD_CAT_ID":"48013","FILE":"3671616","PERIOD":"95.593"},{"RCS_SIZE":"LARGE","ARG_OF_PERICENTER":"51.2202","OBJECT_NAME":"STARLINK-2283","REF_FRAME":"TEME","MEAN_ANOMALY":"308.8981","OBJECT_ID":"2021-024AP","EPHEMERIS_TYPE":"0","CLASSIFICATION_TYPE":"U","ELEMENT_SET_NO":"999","PERIAPSIS":"545.719","INCLINATION":"53.0552","LAUNCH_DATE":"2021-03-24","MEAN_MOTION":"15.06398557","ECCENTRICITY":"0.00021650","BSTAR":"-0.00004216000000","TLE_LINE2":"2 48014  53.0552 246.7570 0002165  51.2202 308.8981 15.06398557 94904","MEAN_MOTION_DOT":"-0.00000910","FILE":"3671616","PERIOD":"95.592","NORAD_CAT_ID":"48014","TLE_LINE1":"1 48014U 21024AP  22331.25865924 -.00000910  00000-0 -42160-4 0  9997","SITE":"AFETR","DECAY_DATE":null,"MEAN_MOTION_DDOT":"0.0000000000000","SEMIMAJOR_AXIS":"6925.353","GP_ID":"218956137","COUNTRY_CODE":"US","RA_OF_ASC_NODE":"246.7570","OBJECT_TYPE":"PAYLOAD","CENTER_NAME":"EARTH","TIME_SYSTEM":"UTC","EPOCH":"2022-11-27T06:12:28.158336","MEAN_ELEMENT_THEORY":"SGP4","APOAPSIS":"548.717","REV_AT_EPOCH":"9490"}];
